{
  "norad_id": 59728,
  "name": "SHIYAN-23 (SY-23)",
  "history": [
    {
      "epoch": "2026-03-28T17:15:56.242944Z",
      "apogee_km": 610.9796477296004,
      "perigee_km": 604.0819993206514,
      "latitude_deg": 4.7666801064665767e-05,
      "longitude_deg": 6.038038126098697,
      "height_km": 611.0304257588717,
      "semi_major_axis_km": 6985.667823525126,
      "eccentricity": 0.0004937,
      "inclination_deg": 97.7782,
      "raan_deg": 91.1582,
      "arg_perigee_deg": 97.8976,
      "mean_anomaly_deg": 262.2801,
      "mean_motion_rev_day": 14.86931172
    },
    {
      "epoch": "2026-03-30T17:43:01.961760Z",
      "apogee_km": 610.9792489358515,
      "perigee_km": 604.0564649726093,
      "latitude_deg": 3.146262458239523e-06,
      "longitude_deg": -0.7485190101497103,
      "height_km": 610.7380944159135,
      "semi_major_axis_km": 6985.65485695423,
      "eccentricity": 0.0004955,
      "inclination_deg": 97.7781,
      "raan_deg": 93.1353,
      "arg_perigee_deg": 93.2242,
      "mean_anomaly_deg": 266.9541,
      "mean_motion_rev_day": 14.86935312
    },
    {
      "epoch": "2026-03-31T16:19:40.492128Z",
      "apogee_km": 610.9726968746663,
      "perigee_km": 604.0513158391677,
      "latitude_deg": -6.240802611434231e-05,
      "longitude_deg": 20.084959381799038,
      "height_km": 610.5978864610319,
      "semi_major_axis_km": 6985.649006356917,
      "eccentricity": 0.0004954,
      "inclination_deg": 97.7781,
      "raan_deg": 94.0579,
      "arg_perigee_deg": 90.9992,
      "mean_anomaly_deg": 269.1791,
      "mean_motion_rev_day": 14.8693718
    },
    {
      "epoch": "2026-04-01T16:33:13.123872Z",
      "apogee_km": 610.9653405936269,
      "perigee_km": 604.052345467363,
      "latitude_deg": 1.5359355149515563e-05,
      "longitude_deg": 16.69266909520059,
      "height_km": 610.4584271016322,
      "semi_major_axis_km": 6985.645843030495,
      "eccentricity": 0.0004948,
      "inclination_deg": 97.7782,
      "raan_deg": 95.0465,
      "arg_perigee_deg": 88.7415,
      "mean_anomaly_deg": 271.4368,
      "mean_motion_rev_day": 14.8693819
    },
    {
      "epoch": "2026-04-02T18:23:39.769728Z",
      "apogee_km": 610.9580929088797,
      "perigee_km": 604.0465013882813,
      "latitude_deg": 2.669164595782931e-05,
      "longitude_deg": -10.925097201871495,
      "height_km": 610.3131571719646,
      "semi_major_axis_km": 6985.63929714858,
      "eccentricity": 0.0004947,
      "inclination_deg": 97.7782,
      "raan_deg": 96.101,
      "arg_perigee_deg": 86.4392,
      "mean_anomaly_deg": 273.739,
      "mean_motion_rev_day": 14.8694028
    },
    {
      "epoch": "2026-04-03T17:00:17.918208Z",
      "apogee_km": 610.9447540777019,
      "perigee_km": 604.0373650524034,
      "latitude_deg": -8.138388527982e-05,
      "longitude_deg": 9.910081375542756,
      "height_km": 610.1840232431664,
      "semi_major_axis_km": 6985.628059565052,
      "eccentricity": 0.0004944,
      "inclination_deg": 97.7782,
      "raan_deg": 97.0237,
      "arg_perigee_deg": 84.4743,
      "mean_anomaly_deg": 275.7036,
      "mean_motion_rev_day": 14.86943868
    },
    {
      "epoch": "2026-04-05T17:27:22.216608Z",
      "apogee_km": 610.9247307117976,
      "perigee_km": 604.0369115401663,
      "latitude_deg": 2.0105838927953356e-05,
      "longitude_deg": 3.1295354803608553,
      "height_km": 609.8954163472765,
      "semi_major_axis_km": 6985.617821125981,
      "eccentricity": 0.000493,
      "inclination_deg": 97.7783,
      "raan_deg": 99.0009,
      "arg_perigee_deg": 79.7807,
      "mean_anomaly_deg": 280.3965,
      "mean_motion_rev_day": 14.86947137
    }
  ]
}